[{"OBJECT_NAME":"IRIDIUM 122","OBJECT_ID":"2017-061C","EPOCH":"2026-03-09T22:07:58.507680","MEAN_MOTION":14.34217131,"ECCENTRICITY":0.00019893,"INCLINATION":86.3911,"RA_OF_ASC_NODE":66.6833,"ARG_OF_PERICENTER":88.1776,"MEAN_ANOMALY":271.9648,"EPHEMERIS_TYPE":0,"CLASSIFICATION_TYPE":"U","NORAD_CAT_ID":42957,"ELEMENT_SET_NO":999,"REV_AT_EPOCH":44055,"BSTAR":-1.2173426e-5,"MEAN_MOTION_DOT":-1.4e-7,"MEAN_MOTION_DDOT":0},{"OBJECT_NAME":"COSMOS 2251 DEB","OBJECT_ID":"1993-036H","EPOCH":"2026-03-09T14:29:12.055200","MEAN_MOTION":14.35735966,"ECCENTRICITY":0.0020975,"INCLINATION":74.0308,"RA_OF_ASC_NODE":122.0352,"ARG_OF_PERICENTER":206.3162,"MEAN_ANOMALY":271.6111,"EPHEMERIS_TYPE":0,"CLASSIFICATION_TYPE":"U","NORAD_CAT_ID":33760,"ELEMENT_SET_NO":999,"REV_AT_EPOCH":89371,"BSTAR":0.00010429,"MEAN_MOTION_DOT":2.76e-6,"MEAN_MOTION_DDOT":0}]
